OBJECT_NAME,OBJECT_ID,EPOCH,MEAN_MOTION,ECCENTRICITY,INCLINATION,RA_OF_ASC_NODE,ARG_OF_PERICENTER,MEAN_ANOMALY,EPHEMERIS_TYPE,CLASSIFICATION_TYPE,NORAD_CAT_ID,ELEMENT_SET_NO,REV_AT_EPOCH,BSTAR,MEAN_MOTION_DOT,MEAN_MOTION_DDOT
INTELSAT 21 (IS-21),2012-045A,2026-06-08T06:15:48.664224,1.00272068,.0001985,0.0458,87.6548,357.4167,207.5531,0,U,38749,999,5043,0,-.269E-5,0
INTELSAT 23 (IS-23),2012-057A,2026-06-08T11:25:13.958400,1.00275217,.000053,0.0055,325.4728,131.7271,277.9834,0,U,38867,999,4986,0,-.269E-5,0
FM-6,2013-058A,2026-06-08T11:07:08.192064,1.00255393,.000277,0.0104,88.0232,64.1714,155.0726,0,U,39360,999,4598,0,.3E-7,0
INTELSAT 30 (IS-30),2014-062A,2026-06-08T09:30:30.906720,1.00269427,.0000976,0.0221,41.5795,355.2230,267.5192,0,U,40271,999,670,0,-.135E-5,0
DIRECTV 14,2014-078B,2026-06-08T09:50:19.742208,1.00271360,.0000454,0.0093,4.1457,184.4721,116.5254,0,U,40333,999,4195,0,-.11E-5,0
DIRECTV 15,2015-026A,2026-06-08T11:06:42.761952,1.00271192,.000048,0.0180,0.4452,239.3873,80.8330,0,U,40663,999,4037,0,-.87E-6,0
SKY MEXICO-1,2015-026B,2026-06-08T10:50:37.522752,1.00271128,.0002162,0.0160,290.9008,165.8974,243.9059,0,U,40664,999,4036,0,-.218E-5,0
INTELSAT 34 (IS-34),2015-039A,2026-06-07T18:17:49.953408,1.00271453,.00005246,0.0104,319.7014,42.0234,113.4137,0,U,40874,999,3954,0,-.27E-5,0
INTELSAT 31 (IS-31),2016-035A,2026-06-08T09:30:30.906720,1.00271986,.0000845,0.0196,259.6716,342.4566,62.2489,0,U,41581,999,3659,0,-.135E-5,0
INTELSAT 36 (IS-36),2016-053A,2026-06-08T05:09:14.677344,1.00268391,.0002074,0.0103,344.8361,354.1634,63.4201,0,U,41747,999,3586,0,-.8E-7,0
INTELSAT 32E (IS-32E),2017-007B,2026-06-08T06:40:38.671104,1.00272394,.0000503,0.0096,315.9191,7.1087,350.6366,0,U,41945,999,3413,0,-.253E-5,0
INTELSAT 35E (IS-35E),2017-041A,2026-06-08T11:30:28.455264,1.00269812,.0001686,0.0188,348.6167,90.0940,316.2970,0,U,42818,999,3272,0,0,0
INTELSAT 37E (IS-37E),2017-059A,2026-06-08T08:09:46.120032,1.00268359,.0002362,0.0183,348.6209,112.5477,260.0060,0,U,42950,999,3197,0,0,0
AZERSPACE 2 (IS-38),2018-074A,2026-06-08T11:53:06.264960,1.00270279,.0001295,0.0214,334.3224,103.5890,42.3522,0,U,43632,999,2836,0,0,0
HORIZONS-3E,2018-074B,2026-06-08T12:25:38.803008,1.00270576,.0000908,0.0073,201.1587,69.7429,341.4132,0,U,43633,999,2825,0,-.15E-6,0
AT&T T-16,2019-034A,2026-06-08T09:28:53.563296,1.00268978,.000057,0.0185,58.5166,201.1394,38.5048,0,U,44333,999,2554,0,-.99E-6,0
INTELSAT 39 (IS-39),2019-049B,2026-06-08T11:57:58.297824,1.00270784,.0000785,0.0194,319.6741,357.7704,180.8923,0,U,44476,999,2504,0,.49E-6,0
GALAXY 30 (G-30),2020-056C,2026-06-08T11:04:38.432352,1.00272709,.0002197,0.0154,305.7746,127.8829,224.3498,0,U,46114,999,2120,0,.53E-6,0
GALAXY 33 (G-33),2022-128A,2026-06-07T23:03:28.702368,1.00272465,.00018624,0.0268,59.3528,17.6781,32.2136,0,U,54026,999,1365,0,.94E-6,0
GALAXY 34 (G-34),2022-128B,2026-06-08T11:03:31.037760,1.00274199,.0001774,0.0098,341.6332,109.2486,202.8567,0,U,54027,999,1382,0,.74E-6,0
GALAXY 31 (G-31),2022-153A,2026-06-08T12:43:29.268768,1.00272124,.0001332,0.0165,266.5163,169.8194,250.4610,0,U,54243,999,704,0,.29E-6,0
GALAXY 32 (G-32),2022-153B,2026-06-08T10:25:46.108416,1.00271209,.0002225,0.0089,325.9982,71.5590,284.7157,0,U,54244,999,1305,0,-.158E-5,0
GALAXY 35 (G-35),2022-170A,2026-06-08T11:07:33.387168,1.00271448,.0002089,0.0275,92.6891,348.0866,249.8743,0,U,54741,999,1280,0,-.146E-5,0
GALAXY 36 (G-36),2022-170B,2026-06-08T11:14:52.451232,1.00271143,.0002706,0.0140,155.5735,287.2373,253.7735,0,U,54742,999,1268,0,-.169E-5,0
GALAXY 37 (G-37),2023-112A,2026-06-08T11:04:00.990048,1.00271714,.0001969,0.0184,339.1105,98.9675,217.7825,0,U,57493,999,1045,0,.64E-6,0
