INTELSAT 21 (IS-21)     
1 38749U 12045A   26159.26097991 -.00000269  00000+0  00000+0 0  9995
2 38749   0.0458  87.6548 0001985 357.4167 207.5531  1.00272068 50435
INTELSAT 23 (IS-23)     
1 38867U 12057A   26159.47585600 -.00000269  00000+0  00000+0 0  9991
2 38867   0.0055 325.4728 0000530 131.7271 277.9834  1.00275217 49867
FM-6                    
1 39360U 13058A   26159.46328926  .00000003  00000+0  00000+0 0  9992
2 39360   0.0104  88.0232 0002770  64.1714 155.0726  1.00255393 45980
INTELSAT 30 (IS-30)     
1 40271U 14062A   26159.39619105 -.00000135  00000+0  00000+0 0  9992
2 40271   0.0221  41.5795 0000976 355.2230 267.5192  1.00269427  6700
DIRECTV 14              
1 40333U 14078B   26159.40995072 -.00000110  00000+0  00000+0 0  9993
2 40333   0.0093   4.1457 0000454 184.4721 116.5254  1.00271360 41951
DIRECTV 15              
1 40663U 15026A   26159.46299493 -.00000087  00000+0  00000+0 0  9996
2 40663   0.0180   0.4452 0000480 239.3873  80.8330  1.00271192 40371
SKY MEXICO-1            
1 40664U 15026B   26159.45182318 -.00000218  00000+0  00000+0 0  9999
2 40664   0.0160 290.9008 0002162 165.8974 243.9059  1.00271128 40365
INTELSAT 34 (IS-34)     
1 40874U 15039A   26158.76238372 -.00000270  00000+0  00000+0 0  9999
2 40874   0.0104 319.7014 0000524  42.0234 113.4137  1.00271453 39545
INTELSAT 31 (IS-31)     
1 41581U 16035A   26159.39619105 -.00000135  00000+0  00000+0 0  9999
2 41581   0.0196 259.6716 0000845 342.4566  62.2489  1.00271986 36598
INTELSAT 36 (IS-36)     
1 41747U 16053A   26159.21475321 -.00000008  00000+0  00000+0 0  9993
2 41747   0.0103 344.8361 0002074 354.1634  63.4201  1.00268391 35865
INTELSAT 32E (IS-32E)   
1 41945U 17007B   26159.27822536 -.00000253  00000+0  00000+0 0  9995
2 41945   0.0096 315.9191 0000503   7.1087 350.6366  1.00272394 34138
INTELSAT 35E (IS-35E)   
1 42818U 17041A   26159.47949601  .00000000  00000+0  00000+0 0  9997
2 42818   0.0188 348.6167 0001686  90.0940 316.2970  1.00269812 32721
INTELSAT 37E (IS-37E)   
1 42950U 17059A   26159.34011713  .00000000  00000+0  00000+0 0  9993
2 42950   0.0183 348.6209 0002362 112.5477 260.0060  1.00268359 31974
AZERSPACE 2 (IS-38)     
1 43632U 18074A   26159.49521140  .00000000  00000+0  00000+0 0  9995
2 43632   0.0214 334.3224 0001295 103.5890  42.3522  1.00270279 28366
HORIZONS-3E             
1 43633U 18074B   26159.51781022 -.00000015  00000+0  00000+0 0  9993
2 43633   0.0073 201.1587 0000908  69.7429 341.4132  1.00270576 28252
AT&T T-16               
1 44333U 19034A   26159.39506439 -.00000099  00000+0  00000+0 0  9993
2 44333   0.0185  58.5166 0000570 201.1394  38.5048  1.00268978 25541
INTELSAT 39 (IS-39)     
1 44476U 19049B   26159.49859141  .00000049  00000+0  00000+0 0  9993
2 44476   0.0194 319.6741 0000785 357.7704 180.8923  1.00270784 25046
GALAXY 30 (G-30)        
1 46114U 20056C   26159.46155593  .00000053  00000+0  00000+0 0  9996
2 46114   0.0154 305.7746 0002197 127.8829 224.3498  1.00272709 21201
GALAXY 33 (G-33)        
1 54026U 22128A   26158.96074887  .00000094  00000+0  00000+0 0  9994
2 54026   0.0268  59.3528 0001862  17.6781  32.2136  1.00272465 13653
GALAXY 34 (G-34)        
1 54027U 22128B   26159.46077590  .00000074  00000+0  00000+0 0  9993
2 54027   0.0098 341.6332 0001774 109.2486 202.8567  1.00274199 13825
GALAXY 31 (G-31)        
1 54243U 22153A   26159.53019987  .00000029  00000+0  00000+0 0  9995
2 54243   0.0165 266.5163 0001332 169.8194 250.4610  1.00272124  7046
GALAXY 32 (G-32)        
1 54244U 22153B   26159.43456144 -.00000158  00000+0  00000+0 0  9999
2 54244   0.0089 325.9982 0002225  71.5590 284.7157  1.00271209 13059
GALAXY 35 (G-35)        
1 54741U 22170A   26159.46358087 -.00000146  00000+0  00000+0 0  9997
2 54741   0.0275  92.6891 0002089 348.0866 249.8743  1.00271448 12801
GALAXY 36 (G-36)        
1 54742U 22170B   26159.46866263 -.00000169  00000+0  00000+0 0  9993
2 54742   0.0140 155.5735 0002706 287.2373 253.7735  1.00271143 12685
GALAXY 37 (G-37)        
1 57493U 23112A   26159.46112257  .00000064  00000+0  00000+0 0  9996
2 57493   0.0184 339.1105 0001969  98.9675 217.7825  1.00271714 10459
